[{"OBJECT_NAME":"OBJECT D","OBJECT_ID":"2024-085D","EPOCH":"2026-03-09T22:53:13.410816","MEAN_MOTION":15.33413141,"ECCENTRICITY":0.00152451,"INCLINATION":97.3312,"RA_OF_ASC_NODE":145.3953,"ARG_OF_PERICENTER":54.9672,"MEAN_ANOMALY":305.2998,"EPHEMERIS_TYPE":0,"CLASSIFICATION_TYPE":"U","NORAD_CAT_ID":59680,"ELEMENT_SET_NO":999,"REV_AT_EPOCH":10244,"BSTAR":0.00049264705,"MEAN_MOTION_DOT":0.00015903,"MEAN_MOTION_DDOT":0},{"OBJECT_NAME":"STARLINK-34901","OBJECT_ID":"2025-176K","EPOCH":"2026-03-09T22:52:38.258976","MEAN_MOTION":15.30203085,"ECCENTRICITY":0.00013849,"INCLINATION":53.1597,"RA_OF_ASC_NODE":151.3019,"ARG_OF_PERICENTER":78.3427,"MEAN_ANOMALY":281.7729,"EPHEMERIS_TYPE":0,"CLASSIFICATION_TYPE":"U","NORAD_CAT_ID":65207,"ELEMENT_SET_NO":999,"REV_AT_EPOCH":3316,"BSTAR":0.0010129877,"MEAN_MOTION_DOT":0.00029766,"MEAN_MOTION_DDOT":0}]
